[
    {
        "CCSDS_OMM_VERS": "3.0",
        "COMMENT": "GENERATED VIA SPACE-TRACK.ORG API",
        "CREATION_DATE": "2025-04-14T03:05:54",
        "ORIGINATOR": "18 SPCS",
        "OBJECT_NAME": "QZS-6",
        "OBJECT_ID": "2025-023A",
        "CENTER_NAME": "EARTH",
        "REF_FRAME": "TEME",
        "TIME_SYSTEM": "UTC",
        "MEAN_ELEMENT_THEORY": "SGP4",
        "EPOCH": "2025-04-13T21:50:38.427072",
        "MEAN_MOTION": "1.00272384",
        "ECCENTRICITY": "0.00010160",
        "INCLINATION": "0.0816",
        "RA_OF_ASC_NODE": "55.4068",
        "ARG_OF_PERICENTER": "324.6672",
        "MEAN_ANOMALY": "240.4691",
        "EPHEMERIS_TYPE": "0",
        "CLASSIFICATION_TYPE": "U",
        "NORAD_CAT_ID": "62876",
        "ELEMENT_SET_NO": "999",
        "REV_AT_EPOCH": "65",
        "BSTAR": "0.00000000000000",
        "MEAN_MOTION_DOT": "-0.00000227",
        "MEAN_MOTION_DDOT": "0.0000000000000",
        "SEMIMAJOR_AXIS": "42164.564",
        "PERIOD": "1436.088",
        "APOAPSIS": "35790.713",
        "PERIAPSIS": "35782.145",
        "OBJECT_TYPE": "PAYLOAD",
        "RCS_SIZE": null,
        "COUNTRY_CODE": "JPN",
        "LAUNCH_DATE": "2025-02-02",
        "SITE": "TNSTA",
        "DECAY_DATE": null,
        "FILE": "4701263",
        "GP_ID": "285551330",
        "TLE_LINE0": "0 QZS-6",
        "TLE_LINE1": "1 62876U 25023A   25103.91016698 -.00000227  00000-0  00000-0 0  9994",
        "TLE_LINE2": "2 62876   0.0816  55.4068 0001016 324.6672 240.4691  1.00272384   656"
    }
]